[{"OBJECT_NAME":"TIANMU-1 19","OBJECT_ID":"2023-208A","EPOCH":"2026-03-09T22:13:36.801696","MEAN_MOTION":15.2984143,"ECCENTRICITY":0.00039292,"INCLINATION":97.4383,"RA_OF_ASC_NODE":184.9132,"ARG_OF_PERICENTER":316.2611,"MEAN_ANOMALY":43.8317,"EPHEMERIS_TYPE":0,"CLASSIFICATION_TYPE":"U","NORAD_CAT_ID":58660,"ELEMENT_SET_NO":999,"REV_AT_EPOCH":12214,"BSTAR":0.00040995676,"MEAN_MOTION_DOT":0.00011779,"MEAN_MOTION_DDOT":0},{"OBJECT_NAME":"STARLINK-36111","OBJECT_ID":"2025-286AB","EPOCH":"2026-03-09T22:50:33.922464","MEAN_MOTION":15.30214257,"ECCENTRICITY":0.0001172,"INCLINATION":53.1599,"RA_OF_ASC_NODE":357.4598,"ARG_OF_PERICENTER":96.2326,"MEAN_ANOMALY":263.8808,"EPHEMERIS_TYPE":0,"CLASSIFICATION_TYPE":"U","NORAD_CAT_ID":66950,"ELEMENT_SET_NO":999,"REV_AT_EPOCH":1545,"BSTAR":0.0010264143,"MEAN_MOTION_DOT":0.00030177,"MEAN_MOTION_DDOT":0}]
